#dP2021  4 27  0  0  0.00000000      96 __u+U ITR00 FIT  IAC
## 2155 172800.00000000   900.00000000 59331 0.0000000000000
+  118   C01C02C03C04C06C07C08C09C10C11C12C13C14C16C19C20C21
+        C22C23C24C25C26C27C28C29C30C32C33C34C35C36C37C41C42
+        C43C44C45C46E01E02E03E04E05E07E08E09E11E12E13E14E15
+        E18E19E21E24E25E26E27E30E31E33E36G01G02G03G04G05G06
+        G07G09G10G12G14G15G16G17G18G19G20G21G22G23G24G25G26
+        G27G28G29G30G31G32J01J02J03R01R02R03R04R05R06R07R08
+        R09R10R11R12R13R14R15R16R17R18R19R20R21R22R23R24  0
++         0 13  0  0 12 11  0 11 10 10 11  0 10 11  9  9 10
++        10  9  9  9  9  9  9  9  9 10 10  9  9 10 10 10 10
++        10 11 10  0  5  6  5  7  5  6  6  6  6  6  5  7  6
++         6  7  6  5  6  6  7  6  6  7  6  5  4  5  0  4  4
++         5  4  0  5  5  5  5  5  5  5  5  5  5  0  5  5  4
++         0  5  4  5  5  5 11 10 10  8  6  6  7  7 15  7  7
++         7 14  8  6  8  6  7  8  6  6  8  8  7  9 14  7  0
%c M  cc GPS ccc cccc cccc cccc cccc ccccc ccccc ccccc ccccc
%c cc cc ccc ccc cccc cccc cccc cccc ccccc ccccc ccccc ccccc
%f  0.0000000  0.000000000  0.00000000000  0.000000000000000
%f  0.0000000  0.000000000  0.00000000000  0.000000000000000
%i    0    0    0    0      0      0      0      0         0
%i    0    0    0    0      0      0      0      0         0
/* INFORMATION & ANALYSIS CENTER (IAC)            RAPID DATA
/* S/V CLOCKS ARE ALIGNED TO GNSS TIME                      
/* G:C1WC2W R:C1PC2P E:C1XC5X C:C2IC6I J:C1CC2S             
/* PCV:IGS14_2148 OL/AL:FES2004  NONE     YN ORB:CoN CLK:CoN
*  2021 04 27 16  0  0.00000000
PC01      0.000000      0.000000      0.000000 999999.999999
PC02   4419.284739  41949.721100   1337.880936    724.812928
PC03      0.000000      0.000000      0.000000 999999.999999
PC04      0.000000      0.000000      0.000000 999999.999999
PC06 -10850.290942  36055.746566  19930.701024    322.906724
PC07 -16516.603487  21772.200041 -31928.026865   -163.814710
PC08      0.000000      0.000000      0.000000 999999.999999
PC09  -1709.378873  42013.649704   5747.009873    565.113693
PC10    515.766533  27323.714452 -31834.933132    -50.522128
PC11  15302.354113  -2731.793817  23235.272336    308.317218
PC12  11829.661965  17350.916048  18401.120768    908.605282
PC13      0.000000      0.000000      0.000000 999999.999999
PC14  24396.920553   3611.943203 -12968.950174    579.278742
PC16  -7726.563330  37964.080818  17014.813618   -806.103582
PC19 -19432.603838   4465.777885  19564.129609    814.098966
PC20 -25438.090965  -9901.686828   5903.468095   -942.953378
PC21  16412.276984  19094.666655  12028.931120   -946.883139
PC22  -2021.036025  16673.877242  22289.301765   -962.299396
PC23  12461.565902 -19669.883014  15382.760258   -895.176272
PC24  22056.434171   1531.464780 -17050.461232   -828.611917
PC25  24149.750287 -13994.661737   -573.886540   -925.880162
PC26   7951.720607  14119.247946 -22727.182606    915.057154
PC27  -7235.910924 -24529.612190 -11162.198883    522.380854
PC28   4924.322831 -26712.572059   6401.649161    -81.202852
PC29 -13649.996266  13725.934837 -20112.230686    384.583829
PC30 -15318.106600  -7986.994179 -21917.910628    463.523262
PC32 -16608.564908 -18961.441325 -11966.479130   -941.614257
PC33  19441.609328  -4527.813222 -19479.512711   -942.410877
PC34  15447.770359   7265.916115  22069.031532   -686.304743
PC35  -4228.837208  26779.346482  -6705.149133   -307.297754
PC36 -24572.685835  13195.226390    941.163139   -728.983777
PC37  -6666.943095 -14819.443165  22702.246371   -906.081448
PC41   2249.694091 -16576.989743 -22280.972726   -946.387053
PC42  25355.893087  10422.090762  -5115.773710   -919.803101
PC43  13975.518287 -13116.028626  20264.033005   -704.644787
PC44   7972.258131  24438.918274  10896.193334    159.197162
PC45 -12352.903849  19620.952183 -15513.956929 999999.999999
PC46      0.000000      0.000000      0.000000 999999.999999
PE01 -23964.544002  -8979.273833  14866.709674  -1095.875755
PE02  24062.239598   8913.148112 -14776.015883    215.151428
PE03  20403.559983  19123.904139  -9676.839874   -424.764601
PE04 -19331.639056   -735.196583  22414.766578   -759.001015
PE05   9509.027360  26568.018105   8940.502029   -285.458968
PE07   6789.422738 -18447.423816 -22122.500141   -530.833700
PE08  19087.747305    369.808352 -22610.142087   6011.070507
PE09  -6481.260243  18514.862625  22170.654088   5686.785636
PE11 -15061.612527  25315.628009  -3037.501984   6047.416031
PE12 -19587.153140   9942.453268 -19853.521352   5238.733338
PE13  15170.679150 -25172.387798   3464.844950    415.612350
PE14 -10333.979707  20538.347294 -19589.027202  -1411.528673
PE15  19491.264843 -10034.588913  19888.900215    817.267018
PE18  -2594.503233 -26502.014651   6339.670091  -1544.547409
PE19 -19683.492181 -20723.405560   7707.624042    262.800213
PE21  -5562.593530 -16078.271807  24217.041460   -661.713897
PE24 -17533.472082  13868.982258 -19403.676758   -869.775141
PE25   5346.704496  16109.508315 -24248.862291   -532.152341
PE26   1342.581625 -25167.303389 -15517.437382   1875.890110
PE27  16767.528971 -14170.506740  19858.938023    -20.246357
PE30  29282.981229  -3217.617458   2959.517961   2990.988911
PE31 -29079.776477   3943.989548  -3854.121576   -480.585012
PE33 -12338.498204 -10956.253080 -24569.082021   -467.987477
PE36  -1926.018585  25469.178643  14974.960732   -199.422529
PG01  13386.703033 -22131.791622  -5402.691629    704.936092
PG02 -19173.468854   9178.800372 -15300.201330   -599.395507
PG03   8918.644879 -13385.597708 -21196.069285   -148.504233
PG04      0.000000      0.000000      0.000000 999999.999999
PG05 -23239.267450   5613.363896  11617.245968    -40.297333
PG06 -15110.388449  -3936.597440 -21436.121729     10.628783
PG07   1727.293815 -20774.826051  16512.068327    134.639405
PG09  -5657.912063 -25215.043926  -6146.361339   -341.840764
PG10      0.000000      0.000000      0.000000 999999.999999
PG12 -12358.171460  11615.107451 -20657.701219    -33.465589
PG14 -19254.451044 -13024.158185  12862.018204     92.407809
PG15  -8332.468425  15405.030048  19510.746331   -153.280484
PG16  25272.880784    132.188039   8647.746841   -316.286687
PG17 -13208.233622 -20954.324840  -9155.997045    433.278108
PG18    955.293066  18868.938355  18634.265029    351.372457
PG19 -15508.969634 -13882.350636 -16847.790594     -7.392991
PG20  -7945.221344  14917.734203  20376.644113    522.752881
PG21  17067.012968 -19702.369846   4193.640413    114.099202
PG22  18158.339925 -10765.693491 -15808.992444   -628.004945
PG23      0.000000      0.000000      0.000000 999999.999999
PG24 -15188.760187  21515.266681    381.173964     39.991092
PG25   2333.571932  15630.420479 -21642.790546    126.603637
PG26  26446.674622   3597.680291  -1054.203559     77.850594
PG27      0.000000      0.000000      0.000000 999999.999999
PG28 -21401.742495 -12355.660668  10029.717022    580.247673
PG29   3811.395445  25594.647378  -5929.417588   -337.351311
PG30 -10089.167823 -12304.016996  21305.289095   -418.576203
PG31  17454.936687   1350.742012 -20185.298535   -114.040834
PG32  15663.930077  18545.783182 -10865.502741     21.929554
PJ01 -26754.771508  20864.466740  30059.277528   -370.970811
PJ02 -33785.619470  17915.033248 -13177.337887      6.561432
PJ03 -20954.154458  29288.769252 -17343.204234     -4.220113
PR01  16409.074310   1360.415585 -19469.048289     78.544479
PR02   -384.492194 -13760.089493 -21414.782420    476.451594
PR03 -14764.889974 -18551.652360  -9293.636169     34.936251
PR04 -20565.735218 -12869.130097   7906.572838     84.275052
PR05 -14889.678139    -55.685588  20721.275636     70.714793
PR06   1589.999444  14422.934348  20980.425385    196.964722
PR07  15139.996698  18595.823471   8801.210633    -42.519731
PR08  20588.943749  12861.238592  -7802.640846    -58.739998
PR09 -12258.958720  13733.316779 -17677.267511     -9.955061
PR10   5080.593891   9824.446475 -22998.249081    -68.310242
PR11  20512.604678     38.679445 -15146.556993     -0.930877
PR12  23601.503715  -9471.374781   2145.568545    224.291514
PR13  12834.277364 -13543.725327  17373.876876    -53.998092
PR14  -6088.061357  -9538.061677  22869.829595     63.620005
PR15 -20799.148143   -157.190622  14782.179807    104.131552
PR16 -22999.039290  10412.136534  -3157.612944    -14.352686
PR17  -1727.418278 -21931.601569 -12933.889271    419.341497
PR18  -8823.189120  -7692.143915 -22644.414134     74.579797
PR19 -11542.620738   9437.734750 -20700.240199   -141.462777
PR20  -7622.339608  23883.752874  -4836.601306    -48.083955
PR21   2214.615740  21212.500603  13974.810013   -204.812224
PR22   9029.722674   6751.365116  22875.391987   -109.909111
PR23  10801.461953 -16236.380405  16427.850600    381.296028
PR24   7071.461812 -24167.959215   4108.973436     40.475935
EOF
